THOR AGENA D RB        
1 00733U 64002A   23054.34909744 0.00000439 00000000 017812-3 0 09996
2 00733 099.0123 358.0113 0032587 251.6798 108.0838 14.32695099 79678